{
    "links": {
        "self": "http://www.neowsapp.com/rest/v1/neo/3760085?api_key=iIulBulltgU6a56xZRHN4H3l9WmuAYTsLGpBGhQ2"
    },
    "id": "3760085",
    "neo_reference_id": "3760085",
    "name": "(2016 TG)",
    "designation": "2016 TG",
    "nasa_jpl_url": "http://ssd.jpl.nasa.gov/sbdb.cgi?sstr=3760085",
    "absolute_magnitude_h": 25.4,
    "estimated_diameter": {
        "kilometers": {
            "estimated_diameter_min": 0.022108281,
            "estimated_diameter_max": 0.0494356193
        },
        "meters": {
            "estimated_diameter_min": 22.1082810359,
            "estimated_diameter_max": 49.435619262
        },
        "miles": {
            "estimated_diameter_min": 0.0137374447,
            "estimated_diameter_max": 0.0307178602
        },
        "feet": {
            "estimated_diameter_min": 72.5337327539,
            "estimated_diameter_max": 162.1903570994
        }
    },
    "is_potentially_hazardous_asteroid": false,
    "close_approach_data": [
        {
            "close_approach_date": "2016-10-07",
            "close_approach_date_full": "2016-Oct-07 13:50",
            "epoch_date_close_approach": 1475848200000,
            "relative_velocity": {
                "kilometers_per_second": "14.6856791284",
                "kilometers_per_hour": "52868.4448623844",
                "miles_per_hour": "32850.3956424077"
            },
            "miss_distance": {
                "astronomical": "0.0207605368",
                "lunar": "8.0758488152",
                "kilometers": "3105732.085336616",
                "miles": "1929812.4312366608"
            },
            "orbiting_body": "Earth"
        }
    ],
    "orbital_data": {
        "orbit_id": "6",
        "orbit_determination_date": "2017-04-06 08:23:29",
        "first_observation_date": "2016-10-01",
        "last_observation_date": "2016-10-05",
        "data_arc_in_days": 4,
        "observations_used": 46,
        "orbit_uncertainty": "8",
        "minimum_orbit_intersection": ".0159991",
        "jupiter_tisserand_invariant": "3.831",
        "epoch_osculation": "2457663.5",
        "eccentricity": ".5762175854153631",
        "semi_major_axis": "1.815906572490006",
        "inclination": "1.206422132442108",
        "ascending_node_longitude": "245.0152971971017",
        "orbital_period": "893.7965575579793",
        "perihelion_distance": ".7695492719499269",
        "perihelion_argument": "198.6826995548139",
        "aphelion_distance": "2.862263873030086",
        "perihelion_time": "2457714.138005319597",
        "mean_anomaly": "339.6042155668379",
        "mean_motion": ".4027762212282265",
        "equinox": "J2000",
        "orbit_class": {
            "orbit_class_type": "APO",
            "orbit_class_description": "Near-Earth asteroid orbits which cross the Earth’s orbit similar to that of 1862 Apollo",
            "orbit_class_range": "a (semi-major axis) > 1.0 AU; q (perihelion) < 1.017 AU"
        }
    },
    "is_sentry_object": false
}